BEIDOU-2 IGSO-1 (C06)   
1 36828U 10036A   25218.27992340 -.00000128  00000+0  00000+0 0  9991
2 36828  54.2813 165.8123 0048983 217.5121 139.4585  1.00262518 54930
BEIDOU-2 G4 (C04)       
1 37210U 10057A   25218.67179169 -.00000108  00000+0  00000+0 0  9998
2 37210   2.8611  70.3664 0005894 165.4589 121.4742  1.00273287 54137
BEIDOU-2 IGSO-2 (C07)   
1 37256U 10068A   25218.59248824 -.00000153  00000+0  00000+0 0  9996
2 37256  48.1135 275.7307 0048504 215.4186 145.4851  1.00273649 53644
BEIDOU-2 IGSO-3 (C08)   
1 37384U 11013A   25218.47531935 -.00000135  00000+0  00000+0 0  9994
2 37384  61.9584  43.1296 0032538 175.9079  12.2940  1.00254462 52508
BEIDOU-2 IGSO-4 (C09)   
1 37763U 11038A   25217.81064322 -.00000046  00000+0  00000+0 0  9991
2 37763  54.5833 168.5017 0144754 231.1100 301.6820  1.00267885 51482
BEIDOU-2 IGSO-5 (C10)   
1 37948U 11073A   25218.58961507 -.00000105  00000+0  00000+0 0  9997
2 37948  48.2509 275.4364 0110064 220.9584 127.4711  1.00276724 49975
BEIDOU-2 G5 (C05)       
1 38091U 12008A   25218.62696138  .00000061  00000+0  00000+0 0  9996
2 38091   2.7845  71.1644 0005737 253.2874 275.3757  1.00275204 49218
BEIDOU-2 M3 (C11)       
1 38250U 12018A   25215.31017484 -.00000090  00000+0  00000+0 0  9991
2 38250  56.0275 315.5743 0022414 265.8621  93.9154  1.86233781 90027
BEIDOU-2 M4 (C12)       
1 38251U 12018B   25215.24268897 -.00000090  00000+0  00000+0 0  9990
2 38251  55.9300 314.8163 0013584 264.9549  94.9245  1.86232114 90021
BEIDOU-2 M6 (C14)       
1 38775U 12050B   25217.10111813 -.00000026  00000+0  00000+0 0  9998
2 38775  56.2620  73.3673 0012296 356.0897   3.9812  1.86231144 87424
BEIDOU-2 G6 (C02)       
1 38953U 12059A   25218.63190140 -.00000172  00000+0  00000+0 0  9996
2 38953   3.6171  76.8371 0007758 322.8188 227.2785  1.00271305 46753
BEIDOU-3S IGSO-1S (C31) 
1 40549U 15019A   25216.70663235 -.00000160  00000+0  00000+0 0  9992
2 40549  49.7943 299.2761 0041009 194.5949 168.6016  1.00267675 37902
BEIDOU-3S M2S (C58)     
1 40748U 15037A   25218.13132308 -.00000065  00000+0  00000+0 0  9998
2 40748  55.1477 312.8782 0010796 250.4189 109.5089  1.86229326 68259
BEIDOU-3S M1S (C57)     
1 40749U 15037B   25218.37853560 -.00000064  00000+0  00000+0 0  9994
2 40749  55.1443 312.8609 0002397  12.6158 347.4352  1.86254008 68265
BEIDOU-3S IGSO-2S (C56) 
1 40938U 15053A   25218.58767911 -.00000055  00000+0  00000+0 0  9999
2 40938  49.7085 262.5225 0060429 190.9999 166.9150  1.00256400 36195
BEIDOU-2 IGSO-6 (C13)   
1 41434U 16021A   25218.51663578 -.00000123  00000+0  00000+0 0  9990
2 41434  59.7843  41.1767 0054859 227.3920 328.5913  1.00278383 34321
BEIDOU-2 G7 (C03)       
1 41586U 16037A   25218.64512917 -.00000348  00000+0  00000+0 0  9998
2 41586   1.8836  69.3884 0008979  12.9104 215.8336  1.00266935  3733
BEIDOU-3 M1 (C19)       
1 43001U 17069A   25217.94062243 -.00000016  00000+0  00000+0 0  9994
2 43001  56.4112  73.4897 0008309 320.7219  39.3018  1.86231517 52736
BEIDOU-3 M2 (C20)       
1 43002U 17069B   25217.87874140 -.00000017  00000+0  00000+0 0  9995
2 43002  56.4096  73.5281 0007201 353.6105   6.4641  1.86230966 52728
BEIDOU-3 M7 (C27)       
1 43107U 18003A   25218.16043457 -.00000067  00000+0  00000+0 0  9997
2 43107  54.6060 313.2853 0003657  96.3465 263.7387  1.86232664 51489
BEIDOU-3 M8 (C28)       
1 43108U 18003B   25218.64123624 -.00000063  00000+0  00000+0 0  9992
2 43108  54.5991 313.2528 0003989 251.6443 108.3579  1.86231058 51495
BEIDOU-3 M4 (C22)       
1 43207U 18018A   25218.00883723 -.00000015  00000+0  00000+0 0  9998
2 43207  56.3698  73.5623 0006529  28.0012 332.1183  1.86231424 50878
BEIDOU-3 M3 (C21)       
1 43208U 18018B   25218.07537201 -.00000015  00000+0  00000+0 0  9993
2 43208  56.3668  73.5641 0007220 333.0421  27.0050  1.86231388 50870
BEIDOU-3 M9 (C29)       
1 43245U 18029A   25218.29238133 -.00000061  00000+0  00000+0 0  9993
2 43245  54.4779 310.9475 0001514 213.4477 146.5906  1.86232910 50035
BEIDOU-3 M10 (C30)      
1 43246U 18029B   25217.15210937 -.00000070  00000+0  00000+0 0  9990
2 43246  54.4761 311.0139 0002704  19.3369 340.7170  1.86229296 49998
BEIDOU-2 IGSO-7 (C16)   
1 43539U 18057A   25218.28027007 -.00000132  00000+0  00000+0 0  9994
2 43539  55.2395 165.7946 0091846 238.0320 121.7270  1.00296324 25979
BEIDOU-3 M5 (C23)       
1 43581U 18062A   25215.22913164  .00000078  00000+0  00000+0 0  9994
2 43581  54.0999 193.1138 0005439 287.7742  72.1539  1.86228894 47717
BEIDOU-3 M6 (C24)       
1 43582U 18062B   25218.31466419  .00000058  00000+0  00000+0 0  9992
2 43582  54.0996 192.9982 0005109   6.9768 353.0081  1.86229801 47770
BEIDOU-3 M12 (C26)      
1 43602U 18067A   25218.25103259  .00000057  00000+0  00000+0 0  9992
2 43602  54.1940 191.7197 0007723  27.2950 332.7219  1.86227952 47256
BEIDOU-3 M11 (C25)      
1 43603U 18067B   25215.16346090  .00000077  00000+0  00000+0 0  9994
2 43603  54.1903 191.7885 0004381   8.8371 351.1565  1.86227307 47229
BEIDOU-3 M13 (C32)      
1 43622U 18072A   25216.73249672 -.00000029  00000+0  00000+0 0  9991
2 43622  56.3421  73.1237 0005165 326.5761  33.4702  1.86231494 46760
BEIDOU-3 M14 (C33)      
1 43623U 18072B   25215.52405757 -.00000042  00000+0  00000+0 0  9991
2 43623  56.3430  73.1576 0004611   9.2293 350.8536  1.86231508 46731
BEIDOU-3 M16 (C35)      
1 43647U 18078A   25218.36814743 -.00000061  00000+0  00000+0 0  9998
2 43647  54.3739 311.0083 0006053  28.8854 331.1960  1.86232354 46290
BEIDOU-3 M15 (C34)      
1 43648U 18078B   25216.34954934 -.00000077  00000+0  00000+0 0  9999
2 43648  54.3715 311.0801 0002907  45.9069 314.1584  1.86232474 46280
BEIDOU-3 G1 (C59)       
1 43683U 18085A   25218.60530458 -.00000276  00000+0  00000+0 0  9999
2 43683   2.7870 106.6886 0004196   3.8767 202.6248  1.00265890 24906
BEIDOU-3 M17 (C36)      
1 43706U 18093A   25218.38604666  .00000058  00000+0  00000+0 0  9999
2 43706  54.1834 192.9756 0010072 288.6989 251.8468  1.86228446 45673
BEIDOU-3 M18 (C37)      
1 43707U 18093B   25217.97855159  .00000061  00000+0  00000+0 0  9993
2 43707  54.1842 192.9813 0008102 316.5995  43.3161  1.86230039 45660
BEIDOU-3 IGSO-1 (C38)   
1 44204U 19023A   25216.42555722 -.00000188  00000+0  00000+0 0  9993
2 44204  58.2475  40.9194 0024252 215.2771 329.0647  1.00283645  4031
BEIDOU-2 G8 (C01)       
1 44231U 19027A   25218.66232455 -.00000242  00000+0  00000+0 0  9991
2 44231   1.8140  75.2191 0003402 248.5669  14.6583  1.00272432 22927
BEIDOU-3 IGSO-2 (C39)   
1 44337U 19035A   25217.75738197 -.00000142  00000+0  00000+0 0  9999
2 44337  55.2165 161.6354 0035353 210.0385 333.6177  1.00255633 22505
BEIDOU-3 M24 (C46)      
1 44542U 19061A   25218.04976565  .00000061  00000+0  00000+0 0  9991
2 44542  54.4108 193.3556 0008426 353.4914   6.4772  1.86229363 39923
BEIDOU-3 M23 (C45)      
1 44543U 19061B   25218.48880458  .00000059  00000+0  00000+0 0  9992
2 44543  54.4096 193.3093 0005787 335.0724 232.0254  1.86229569 39939
BEIDOU-3 IGSO-3 (C40)   
1 44709U 19073A   25216.58940097 -.00000162  00000+0  00000+0 0  9990
2 44709  55.3412 284.3197 0045583 190.1881 169.8312  1.00283973 21289
BEIDOU-3 M22 (C44)      
1 44793U 19078A   25218.42848296 -.00000060  00000+0  00000+0 0  9998
2 44793  54.2206 310.8873 0004874  38.9474 321.1361  1.86232277 38787
BEIDOU-3 M21 (C43)      
1 44794U 19078B   25218.02620998 -.00000063  00000+0  00000+0 0  9995
2 44794  54.1943 310.8689 0002868  32.9582 327.1066  1.86227859 38783
BEIDOU-3 M19 (C41)      
1 44864U 19090A   25214.22573028 -.00000054  00000+0  00000+0 0  9996
2 44864  56.2739  73.3555 0016116 290.5684 235.9928  1.86231879 38292
BEIDOU-3 M20 (C42)      
1 44865U 19090B   25216.23974929 -.00000035  00000+0  00000+0 0  9994
2 44865  56.2773  73.3229 0013832 305.7954 220.6979  1.86231766 38315
BEIDOU-3 G2 (C60)       
1 45344U 20017A   25218.63372243 -.00000136  00000+0  00000+0 0  9997
2 45344   2.9585  41.4366 0001848  99.2361 122.9173  1.00272534 20108
BEIDOU-3 G3 (C61)       
1 45807U 20040A   25218.64512914 -.00000349  00000+0  00000+0 0  9995
2 45807   1.6769  65.0506 0004371 344.9406 248.2288  1.00269653 18917
BEIDOU-3 G4 (C62)       
1 56564U 23066A   25217.66020850 -.00000103  00000+0  00000+0 0  9990
2 56564   1.1098 294.1973 0006690 197.1350 220.7423  1.00273670  8238
BEIDOU-3 M28 (C50)      
1 58654U 23207A   25217.03158815 -.00000029  00000+0  00000+0 0  9990
2 58654  55.4661  72.9911 0001522   5.5084 354.5725  1.86230067 10957
BEIDOU-3 M26 (C48)      
1 58655U 23207B   25217.90425091 -.00000019  00000+0  00000+0 0  9999
2 58655  55.4690  72.9477 0001134 293.5630  66.5079  1.86231733 10955
BEIDOU-3 M25 (C47)      
1 61186U 24168B   25218.23012034 -.00000066  00000+0  00000+0 0  9997
2 61186  54.7517 313.1734 0004058 280.1551  55.8308  1.86230270  5917
BEIDOU-3 M27 (C49)      
1 61187U 24168C   25217.49592228 -.00000071  00000+0  00000+0 0  9999
2 61187  54.7477 313.1827 0000623 352.0105 346.6311  1.86230340  3375
